ONEWEB-0560             
1 55145U 23004F   25180.55297549 -.00000002  00000+0 -38035-4 0  9997
2 55145  87.9128  45.5555 0002120  85.0360 275.1014 13.18773614123235
ONEWEB-0565             
1 55146U 23004G   25180.62239711  .00000197  00000+0  46657-3 0  9994
2 55146  87.9121  45.6012 0002214  71.9889 288.1484 13.18798560123234
ONEWEB-0567             
1 55147U 23004H   25180.61592452  .00000028  00000+0  39203-4 0  9991
2 55147  87.9123  45.5586 0002194  78.2635 281.8743 13.18824074123236
ONEWEB-0569             
1 55148U 23004J   25180.61057219 -.00000293  00000+0 -83765-3 0  9996
2 55148  87.8959  30.2609 0002801  84.7532 275.3917 13.13469475123891
ONEWEB-0570             
1 55149U 23004K   25180.60474895 -.00000054  00000+0 -17122-3 0  9998
2 55149  87.9121  45.5639 0001757  61.9628 298.1682 13.18584214123221
ONEWEB-0571             
1 55150U 23004L   25180.59826956 -.00000044  00000+0 -14539-3 0  9995
2 55150  87.9121  45.5721 0003000  69.6256 290.5198 13.18603761123238
ONEWEB-0572             
1 55151U 23004M   25180.41613577  .00000041  00000+0  72652-4 0  9996
2 55151  87.9065  76.0960 0001978  72.7031 287.4316 13.17648368121021
ONEWEB-0573             
1 55152U 23004N   25180.66769051  .00000001  00000+0 -31327-4 0  9994
2 55152  87.9120  45.5651 0002397  62.8866 297.2511 13.18629618123233
